{"type": "FeatureCollection", "features": [ {"type": "Feature", "properties": {"norad_id": 66880, "name": "STARLINK-35844", "group": "last-30-days", "lat": -4.269546616707829, "lon": -174.7482861840988, "alt_km": 408.6432136544099, "timestamp": "2025-12-27T04:40:44.219806+00:00", "meta": {"OBJECT_NAME": "STARLINK-35844", "OBJECT_ID": "2025-283C", "EPOCH": "2025-12-26T22:00:01.999584", "MEAN_MOTION": 15.54469743, "ECCENTRICITY": 0.00010252, "INCLINATION": 53.1596, "RA_OF_ASC_NODE": 3.3831, "ARG_OF_PERICENTER": 83.1235, "MEAN_ANOMALY": 344.6173, "EPHEMERIS_TYPE": 0, "CLASSIFICATION_TYPE": "U", "NORAD_CAT_ID": 66880, "ELEMENT_SET_NO": 999, "REV_AT_EPOCH": 470, "BSTAR": -0.033247474, "MEAN_MOTION_DOT": -0.01992076, "MEAN_MOTION_DDOT": 0}, "tle": {"line1": "1 66880U 25283C   25360.91668981 -.01992076  00000+0 -33247-1 0  9997", "line2": "2 66880  53.1596   3.3831 0001025  83.1235 344.6173 15.54469743  4704"}}, "geometry": {"type": "Point", "coordinates": [-174.7482861840988, -4.269546616707829]}}, {"type": "Feature", "properties": {"norad_id": 66881, "name": "STARLINK-35860", "group": "last-30-days", "lat": -7.327141574194564, "lon": -172.43323722603233, "alt_km": 409.11716540976795, "timestamp": "2025-12-27T04:40:44.219816+00:00", "meta": {"OBJECT_NAME": "STARLINK-35860", "OBJECT_ID": "2025-283D", "EPOCH": "2025-12-26T22:00:01.999584", "MEAN_MOTION": 15.54471194, "ECCENTRICITY": 0.00011545, "INCLINATION": 53.1599, "RA_OF_ASC_NODE": 3.3747, "ARG_OF_PERICENTER": 79.7232, "MEAN_ANOMALY": 351.8487, "EPHEMERIS_TYPE": 0, "CLASSIFICATION_TYPE": "U", "NORAD_CAT_ID": 66881, "ELEMENT_SET_NO": 999, "REV_AT_EPOCH": 470, "BSTAR": -0.03327562, "MEAN_MOTION_DOT": -0.01993756, "MEAN_MOTION_DDOT": 0}, "tle": {"line1": "1 66881U 25283D   25360.91668981 -.01993756  00000+0 -33276-1 0  9996", "line2": "2 66881  53.1599   3.3747 0001154  79.7232 351.8487 15.54471194  4706"}}, "geometry": {"type": "Point", "coordinates": [-172.43323722603233, -7.327141574194564]}}, {"type": "Feature", "properties": {"norad_id": 66882, "name": "STARLINK-35912", "group": "last-30-days", "lat": -8.852566506212586, "lon": -171.26290719410713, "alt_km": 409.2699498784814, "timestamp": "2025-12-27T04:40:44.219826+00:00", "meta": {"OBJECT_NAME": "STARLINK-35912", "OBJECT_ID": "2025-283E", "EPOCH": "2025-12-26T22:00:01.999584", "MEAN_MOTION": 15.54469492, "ECCENTRICITY": 0.00011234, "INCLINATION": 53.159, "RA_OF_ASC_NODE": 3.3713, "ARG_OF_PERICENTER": 83.5154, "MEAN_ANOMALY": 349.9759, "EPHEMERIS_TYPE": 0, "CLASSIFICATION_TYPE": "U", "NORAD_CAT_ID": 66882, "ELEMENT_SET_NO": 999, "REV_AT_EPOCH": 470, "BSTAR": -0.033255209, "MEAN_MOTION_DOT": -0.01992531, "MEAN_MOTION_DDOT": 0}, "tle": {"line1": "1 66882U 25283E   25360.91668981 -.01992531  00000+0 -33255-1 0  9994", "line2": "2 66882  53.1590   3.3713 0001123  83.5154 349.9759 15.54469492  4701"}}, "geometry": {"type": "Point", "coordinates": [-171.26290719410713, -8.852566506212586]}}, {"type": "Feature", "properties": {"norad_id": 66883, "name": "STARLINK-35947", "group": "last-30-days", "lat": -10.373431378366801, "lon": -170.08438042152142, "alt_km": 409.41100330936297, "timestamp": "2025-12-27T04:40:44.219839+00:00", "meta": {"OBJECT_NAME": "STARLINK-35947", "OBJECT_ID": "2025-283F", "EPOCH": "2025-12-26T22:00:01.999584", "MEAN_MOTION": 15.54466248, "ECCENTRICITY": 0.00010577, "INCLINATION": 53.1595, "RA_OF_ASC_NODE": 3.3673, "ARG_OF_PERICENTER": 87.0034, "MEAN_ANOMALY": 348.4068, "EPHEMERIS_TYPE": 0, "CLASSIFICATION_TYPE": "U", "NORAD_CAT_ID": 66883, "ELEMENT_SET_NO": 999, "REV_AT_EPOCH": 475, "BSTAR": -0.033156901, "MEAN_MOTION_DOT": -0.01987002, "MEAN_MOTION_DDOT": 0}, "tle": {"line1": "1 66883U 25283F   25360.91668981 -.01987002  00000+0 -33157-1 0  9993", "line2": "2 66883  53.1595   3.3673 0001057  87.0034 348.4068 15.54466248  4752"}}, "geometry": {"type": "Point", "coordinates": [-170.08438042152142, -10.373431378366801]}}, {"type": "Feature", "properties": {"norad_id": 66884, "name": "STARLINK-36057", "group": "last-30-days", "lat": -13.400803148769457, "lon": -167.6914015593523, "alt_km": 409.8386962182358, "timestamp": "2025-12-27T04:40:44.219852+00:00", "meta": {"OBJECT_NAME": "STARLINK-36057", "OBJECT_ID": "2025-283G", "EPOCH": "2025-12-26T22:00:01.999584", "MEAN_MOTION": 15.54471365, "ECCENTRICITY": 9.185e-05, "INCLINATION": 53.1594, "RA_OF_ASC_NODE": 3.359, "ARG_OF_PERICENTER": 95.8249, "MEAN_ANOMALY": 343.4178, "EPHEMERIS_TYPE": 0, "CLASSIFICATION_TYPE": "U", "NORAD_CAT_ID": 66884, "ELEMENT_SET_NO": 999, "REV_AT_EPOCH": 470, "BSTAR": -0.033296793, "MEAN_MOTION_DOT": -0.01994769, "MEAN_MOTION_DDOT": 0}, "tle": {"line1": "1 66884U 25283G   25360.91668981 -.01994769  00000+0 -33297-1 0  9997", "line2": "2 66884  53.1594   3.3590 0000918  95.8249 343.4178 15.54471365  4708"}}, "geometry": {"type": "Point", "coordinates": [-167.6914015593523, -13.400803148769457]}}, {"type": "Feature", "properties": {"norad_id": 66885, "name": "STARLINK-35954", "group": "last-30-days", "lat": -11.88882908720077, "lon": -168.89486230989272, "alt_km": 409.68219740581026, "timestamp": "2025-12-27T04:40:44.219863+00:00", "meta": {"OBJECT_NAME": "STARLINK-35954", "OBJECT_ID": "2025-283H", "EPOCH": "2025-12-26T22:00:01.999584", "MEAN_MOTION": 15.54471325, "ECCENTRICITY": 0.00010264, "INCLINATION": 53.1594, "RA_OF_ASC_NODE": 3.3635, "ARG_OF_PERICENTER": 77.369, "MEAN_ANOMALY": 359.9558, "EPHEMERIS_TYPE": 0, "CLASSIFICATION_TYPE": "U", "NORAD_CAT_ID": 66885, "ELEMENT_SET_NO": 999, "REV_AT_EPOCH": 470, "BSTAR": -0.03332261, "MEAN_MOTION_DOT": -0.01996213, "MEAN_MOTION_DDOT": 0}, "tle": {"line1": "1 66885U 25283H   25360.91668981 -.01996213  00000+0 -33323-1 0  9994", "line2": "2 66885  53.1594   3.3635 0001026  77.3690 359.9558 15.54471325  4705"}}, "geometry": {"type": "Point", "coordinates": [-168.89486230989272, -11.88882908720077]}}, {"type": "Feature", "properties": {"norad_id": 66886, "name": "STARLINK-35900", "group": "last-30-days", "lat": -14.905507205065039, "lon": -166.47369548969414, "alt_km": 410.00383232067543, "timestamp": "2025-12-27T04:40:44.219873+00:00", "meta": {"OBJECT_NAME": "STARLINK-35900", "OBJECT_ID": "2025-283J", "EPOCH": "2025-12-26T22:00:01.999584", "MEAN_MOTION": 15.54470477, "ECCENTRICITY": 0.00010471, "INCLINATION": 53.1592, "RA_OF_ASC_NODE": 3.3546, "ARG_OF_PERICENTER": 81.0525, "MEAN_ANOMALY": 0.1057, "EPHEMERIS_TYPE": 0, "CLASSIFICATION_TYPE": "U", "NORAD_CAT_ID": 66886, "ELEMENT_SET_NO": 999, "REV_AT_EPOCH": 470, "BSTAR": -0.033263727, "MEAN_MOTION_DOT": -0.01993009, "MEAN_MOTION_DDOT": 0}, "tle": {"line1": "1 66886U 25283J   25360.91668981 -.01993009  00000+0 -33264-1 0  9999", "line2": "2 66886  53.1592   3.3546 0001047  81.0525   0.1057 15.54470477  4703"}}, "geometry": {"type": "Point", "coordinates": [-166.47369548969414, -14.905507205065039]}}, {"type": "Feature", "properties": {"norad_id": 66887, "name": "STARLINK-35925", "group": "last-30-days", "lat": -16.40476668513206, "lon": -165.23786721061913, "alt_km": 410.1563980514238, "timestamp": "2025-12-27T04:40:44.219883+00:00", "meta": {"OBJECT_NAME": "STARLINK-35925", "OBJECT_ID": "2025-283K", "EPOCH": "2025-12-26T22:00:01.999584", "MEAN_MOTION": 15.54468793, "ECCENTRICITY": 0.00010328, "INCLINATION": 53.1597, "RA_OF_ASC_NODE": 3.3505, "ARG_OF_PERICENTER": 82.2323, "MEAN_ANOMALY": 0.8447, "EPHEMERIS_TYPE": 0, "CLASSIFICATION_TYPE": "U", "NORAD_CAT_ID": 66887, "ELEMENT_SET_NO": 999, "REV_AT_EPOCH": 470, "BSTAR": -0.033232377, "MEAN_MOTION_DOT": -0.01991207, "MEAN_MOTION_DDOT": 0}, "tle": {"line1": "1 66887U 25283K   25360.91668981 -.01991207  00000+0 -33232-1 0  9993", "line2": "2 66887  53.1597   3.3505 0001032  82.2323   0.8447 15.54468793  4705"}}, "geometry": {"type": "Point", "coordinates": [-165.23786721061913, -16.40476668513206]}}, {"type": "Feature", "properties": {"norad_id": 66888, "name": "STARLINK-35919", "group": "last-30-days", "lat": -17.895192850659974, "lon": -163.98407467448985, "alt_km": 410.3534196343344, "timestamp": "2025-12-27T04:40:44.219893+00:00", "meta": {"OBJECT_NAME": "STARLINK-35919", "OBJECT_ID": "2025-283L", "EPOCH": "2025-12-26T22:00:01.999584", "MEAN_MOTION": 15.54472368, "ECCENTRICITY": 0.00010598, "INCLINATION": 53.1597, "RA_OF_ASC_NODE": 3.3462, "ARG_OF_PERICENTER": 79.2251, "MEAN_ANOMALY": 5.7656, "EPHEMERIS_TYPE": 0, "CLASSIFICATION_TYPE": "U", "NORAD_CAT_ID": 66888, "ELEMENT_SET_NO": 999, "REV_AT_EPOCH": 470, "BSTAR": -0.033300396, "MEAN_MOTION_DOT": -0.01995108, "MEAN_MOTION_DDOT": 0}, "tle": {"line1": "1 66888U 25283L   25360.91668981 -.01995108  00000+0 -33300-1 0  9994", "line2": "2 66888  53.1597   3.3462 0001059  79.2251   5.7656 15.54472368  4702"}}, "geometry": {"type": "Point", "coordinates": [-163.98407467448985, -17.895192850659974]}}, {"type": "Feature", "properties": {"norad_id": 66889, "name": "STARLINK-35852", "group": "last-30-days", "lat": -19.37843093622382, "lon": -162.70786751893618, "alt_km": 410.558567466338, "timestamp": "2025-12-27T04:40:44.219902+00:00", "meta": {"OBJECT_NAME": "STARLINK-35852", "OBJECT_ID": "2025-283M", "EPOCH": "2025-12-26T22:00:01.999584", "MEAN_MOTION": 15.54471522, "ECCENTRICITY": 0.00010942, "INCLINATION": 53.1596, "RA_OF_ASC_NODE": 3.3421, "ARG_OF_PERICENTER": 76.1246, "MEAN_ANOMALY": 10.7848, "EPHEMERIS_TYPE": 0, "CLASSIFICATION_TYPE": "U", "NORAD_CAT_ID": 66889, "ELEMENT_SET_NO": 999, "REV_AT_EPOCH": 470, "BSTAR": -0.033321278, "MEAN_MOTION_DOT": -0.01996193, "MEAN_MOTION_DDOT": 0}, "tle": {"line1": "1 66889U 25283M   25360.91668981 -.01996193  00000+0 -33321-1 0  9993", "line2": "2 66889  53.1596   3.3421 0001094  76.1246  10.7848 15.54471522  4706"}}, "geometry": {"type": "Point", "coordinates": [-162.70786751893618, -19.37843093622382]}}]}